SL-16 R/B               
1 25400U 98043G   25353.88500593  .00000022  00000+0  27981-4 0  9995
2 25400  98.8135 301.7433 0008843 243.5180 116.5093 14.26027115427618
SL-16 R/B               
1 25407U 98045B   25353.19239591  .00000082  00000+0  65463-4 0  9998
2 25407  71.0115 350.8565 0006583 166.3314 193.7988 14.16174810415708
ISS (ZARYA)             
1 25544U 98067A   25353.76392194  .00006675  00000+0  12626-3 0  9992
2 25544  51.6318 107.6945 0003186 273.0117  87.0507 15.49672026543941
OKEAN-O                 
1 25860U 99039A   25353.88767736  .00000545  00000+0  78649-4 0  9992
2 25860  97.9593  49.5273 0000976 110.6853 249.4464 14.80172995422581
SL-16 R/B               
1 25861U 99039B   25353.87590192  .00000436  00000+0  62252-4 0  9994
2 25861  98.0117  48.0274 0015467 152.0463 208.1583 14.81596016425042
DELTA 2 R/B             
1 25876U 99041E   25353.93619997  .00000635  00000+0  14232-3 0  9990
2 25876  51.7611 259.7183 0504549 112.9765 252.5205 14.11418906351762
HELIOS 1B               
1 25977U 99064A   25353.66573311  .00001254  00000+0  14551-3 0  9998
2 25977  98.1757 248.5367 0001320  34.3298 325.8003 14.87307310673369
TERRA                   
1 25994U 99068A   25353.92407558  .00000327  00000+0  75870-4 0  9991
2 25994  97.9738  45.3446 0003548  80.3104 332.0344 14.60909346383438
SL-16 R/B               
1 26070U 00006B   25353.89341137 -.00000171  00000+0 -62473-4 0  9991
2 26070  71.0020 265.6163 0018562 299.0298  60.8965 14.15808472337262
TITAN 4B R/B            
1 26474U 00047B   25353.90247513  .00002342  00000+0  15455-3 0  9996
2 26474  67.9899 264.7378 0038428 136.0265 224.3953 15.08829479380875
ENVISAT                 
1 27386U 02009A   25352.94754304  .00000081  00000+0  39999-4 0  9991
2 27386  98.3609 303.5309 0001126  84.8976 298.2993 14.39001403247569
